OBJECT_NAME,OBJECT_ID,EPOCH,MEAN_MOTION,ECCENTRICITY,INCLINATION,RA_OF_ASC_NODE,ARG_OF_PERICENTER,MEAN_ANOMALY,EPHEMERIS_TYPE,CLASSIFICATION_TYPE,NORAD_CAT_ID,ELEMENT_SET_NO,REV_AT_EPOCH,BSTAR,MEAN_MOTION_DOT,MEAN_MOTION_DDOT
BEIDOU-2 M4,2012-018B,2026-06-11T05:08:46.224960,1.86229745,.0011156,55.6637,304.2914,276.7373,83.1206,0,U,38251,999,9583,0,-.65E-6,0
ARIRANG-3 (KOMPSAT-3),2012-025B,2026-06-11T16:40:57.984384,14.62201378,.0006463,98.1175,120.2499,123.2999,236.8822,0,U,38338,999,75054,.81032E-4,.362E-5,0
METOP-B,2012-049A,2026-06-11T16:46:42.180384,14.21431239,.0002565,98.6506,214.3076,32.8216,327.3121,0,U,38771,999,71248,.59179E-4,.86E-6,0
SJ-9A,2012-056A,2026-06-11T15:22:56.465184,14.85468812,.0023958,97.6706,134.7930,276.1599,83.6887,0,U,38860,999,69876,.13152E-3,.1087E-4,0
COSMOS 2484 (RODNIK-S 6),2013-001C,2026-06-11T18:04:20.034624,12.42938895,.0027078,82.5021,225.2707,48.2054,312.1332,0,U,39059,999,60788,.23075E-3,.42E-6,0
SARAL,2013-009A,2026-06-11T15:56:05.064864,14.32854582,.0000999,98.5557,349.3012,339.3668,20.7476,0,U,39086,999,69481,.46749E-4,.84E-6,0
STRAND-1,2013-009E,2026-06-11T11:40:12.874368,14.37160014,.0007504,98.3921,342.8611,244.6927,115.3483,0,U,39090,999,69624,.10129E-3,.258E-5,0
BRITE-AUSTRIA,2013-009F,2026-06-11T10:14:54.820032,14.36539758,.0008992,98.3993,342.0054,255.9460,104.0727,0,U,39091,999,69622,.6267E-4,.141E-5,0
GAOFEN-1,2013-018A,2026-06-11T17:01:31.296000,14.76532352,.0015747,97.9095,234.8885,285.7511,74.1962,0,U,39150,999,70743,.88902E-4,.57E-5,0
NEE-01 PEGASO,2013-018B,2026-06-11T08:53:19.823712,14.93633706,.0012644,98.1214,306.3290,177.4473,182.6812,0,U,39151,999,70983,.17424E-3,.1781E-4,0
PROBA-V,2013-021A,2026-06-11T11:54:46.581408,14.23595841,.0004918,98.3582,141.3840,136.9652,223.1913,0,U,39159,999,68030,.46357E-4,.65E-6,0
ARIRANG-5 (KOMPSAT-5),2013-042A,2026-06-11T17:05:43.729152,15.04477821,.000483,97.6217,349.4905,135.0499,225.1119,0,U,39227,999,70303,.11054E-3,.1486E-4,0
GONETS-M 5,2013-048A,2026-06-11T17:19:08.379264,12.42891588,.0015876,82.4835,346.7910,222.9142,137.0700,0,U,39249,999,57820,.30075E-3,.51E-6,0
GONETS-M 7,2013-048C,2026-06-11T18:21:51.352416,12.42914243,.0016667,82.4903,349.6833,224.2214,135.7534,0,U,39251,999,57816,-.7091E-4,0,0
FENGYUN 3C,2013-052A,2026-06-11T17:50:21.170112,14.15753860,.0015514,98.4976,136.8682,42.5640,317.6734,0,U,39260,999,65779,.60414E-4,.77E-6,0
CASSIOPE,2013-055A,2026-06-11T15:36:27.621216,15.24672257,.0294765,80.9146,73.4416,80.9999,282.4467,0,U,39265,999,66682,.47092E-3,.42906E-3,-.55598E-6
APRIZESAT 7,2013-066A,2026-06-11T15:40:13.812096,14.91552443,.0034594,97.7707,115.9525,228.0546,131.7722,0,U,39416,999,68040,.8128E-4,.765E-5,0
ZACUBE-1 (TSHEPISOSAT),2013-066B,2026-06-11T11:23:51.094752,15.01152947,.004021,97.8085,124.7807,267.7109,91.9510,0,U,39417,999,67987,.21784E-3,.2775E-4,0
APRIZESAT 8,2013-066K,2026-06-11T02:06:36.657792,14.87640786,.00446914,97.8220,109.6410,307.2502,52.4642,0,U,39425,999,67876,.10067289E-3,.874E-5,0
TRITON-1,2013-066M,2026-06-11T16:34:18.198624,14.81684819,.0088378,97.8249,72.6223,252.1224,107.0336,0,U,39427,999,67327,.14795E-3,.1187E-4,0
